{
  "type": "FeatureCollection",
  "features": [
    {
      "type": "Feature",
      "properties": {
        "id": "8",
        "name": "Câmpia Iberică"
      },
      "geometry": {
        "type": "Polygon",
        "coordinates": [
          [
            [-4.1873, 39.8153],
            [-6.4967, 39.4208],
            [-7.8383, 40.0617],
            [-9.7025, 41.8797],
            [-8.2917, 44.5367],
            [-5.334, 46.5292],
            [-2.8988, 46.8837],
            [-0.5752, 46.4385],
            [1.0776, 44.9213],
            [0.8354, 43.6845],
            [0.7877, 42.8256],
            [-0.7208, 41.3655],
            [-2.3275, 39.8542],
            [-4.1873, 39.8153]
          ]
        ]
      }
    },
    {
      "type": "Feature",
      "properties": {
        "id": "11",
        "name": "Câmpia Padului"
      },
      "geometry": {
        "type": "Polygon",
        "coordinates": [
          [
            [9.8659, 52.8839],
            [9.8631, 53.1818],
            [11.2335, 53.284],
            [13.1852, 53.3888],
            [14.3006, 53.9142],
            [15.0298, 53.9317],
            [16.1843, 53.109],
            [18.3375, 52.3298],
            [19.6738, 51.8105],
            [20.1245, 50.8407],
            [18.9669, 49.761],
            [17.3377, 49.3821],
            [15.7535, 49.7719],
            [13.7845, 50.4801],
            [12.2871, 51.082],
            [10.595, 51.8906],
            [9.8659, 52.8839]
          ]
        ]
      }
    },
    {
      "type": "Feature",
      "properties": {
        "id": "12",
        "name": "Câmpia Panonică"
      },
      "geometry": {
        "type": "Polygon",
        "coordinates": [
          [
            [14.2882, 54.3415],
            [12.9126, 53.6888],
            [10.8242, 53.473],
            [9.2842, 53.4076],
            [8.2831, 53.4719],
            [7.3486, 53.7661],
            [6.6201, 54.5262],
            [6.215, 55.2818],
            [6.8841, 56.3533],
            [8.1402, 57.3242],
            [9.5532, 57.8804],
            [11.1398, 58.0772],
            [13.087, 57.9622],
            [14.241, 57.5996],
            [15.3406, 57.1438],
            [15.7924, 56.3687],
            [16.2201, 55.3703],
            [15.5348, 54.7871],
            [14.2882, 54.3415]
          ]
        ]
      }
    },
    {
      "type": "Feature",
      "properties": {
        "id": "13",
        "name": "Câmpia Română / Balcani"
      },
      "geometry": {
        "type": "Polygon",
        "coordinates": [
          [
            [15.556, 53.6933],
            [16.7107, 56.1264],
            [19.8241, 58.8598],
            [24.321, 59.5701],
            [29.3514, 59.7893],
            [33.918, 58.7416],
            [34.9961, 58.5982],
            [36.4714, 57.9734],
            [37.6045, 56.9959],
            [37.4042, 55.2104],
            [36.9535, 53.8863],
            [36.3888, 52.8795],
            [34.5779, 52.3831],
            [31.4878, 51.8797],
            [28.7247, 51.4883],
            [24.939, 51.0252],
            [20.7303, 51.3442],
            [18.349, 52.327],
            [16.0827, 52.9213],
            [15.556, 53.6933]
          ]
        ]
      }
    },
    {
      "type": "Feature",
      "properties": {
        "id": "1",
        "name": "Câmpia Franceză"
      },
      "geometry": {
        "type": "Polygon",
        "coordinates": [
          [22.2533, 48.7297],
          [24.2883, 49.5222],
          [26.8373, 49.6053],
          [28.7495, 48.9056],
          [29.3669, 47.747],
          [28.9808, 46.5492],
          [27.8765, 45.0312],
          [26.2801, 43.9409],
          [23.3283, 44.1895],
          [20.5513, 44.5768],
          [19.0063, 45.2415],
          [18.2259, 46.5204],
          [19.0833, 47.7414],
          [22.2533, 48.7297]
        ]
      }
    },
    {
      "type": "Feature",
      "properties": {
        "id": "2",
        "name": "Câmpia Nord-Europeană"
      },
      "geometry": {
        "type": "Polygon",
        "coordinates": [
          [28.8471, 50.0075],
          [28.9205, 50.9744],
          [29.7738, 51.4646],
          [32.4285, 51.9082],
          [35.5036, 52.3082],
          [37.4208, 52.5317],
          [39.3876, 51.7828],
          [40.1772, 50.7431],
          [40.0862, 49.7006],
          [38.9099, 48.7416],
          [37.5938, 47.4391],
          [36.5779, 46.1666],
          [35.4052, 45.2282],
          [33.5358, 45.1979],
          [30.4079, 46.062],
          [29.1764, 47.7663],
          [28.8471, 50.0075]
        ]
      }
    },
    {
      "type": "Feature",
      "properties": {
        "id": "3",
        "name": "Zona Baltică"
      },
      "geometry": {
        "type": "Polygon",
        "coordinates": [
          [38.5606, 45.0298],
          [37.7011, 44.9708],
          [36.6669, 45.1673],
          [37.0739, 45.7277],
          [37.6253, 46.8291],
          [38.2036, 47.4222],
          [39.3093, 48.5362],
          [40.2222, 49.3562],
          [41.178, 49.6976],
          [41.9723, 49.7618],
          [42.8105, 49.6309],
          [43.4688, 49.2215],
          [43.8569, 48.8687],
          [44.6053, 48.5147],
          [45.2676, 48.2045],
          [45.8504, 47.9357],
          [45.8118, 47.4699],
          [45.2109, 46.9934],
          [44.0205, 46.6611],
          [42.4173, 46.289],
          [40.2871, 45.6888],
          [38.5606, 45.0298]
        ]
      }
    },
    {
      "type": "Feature",
      "properties": {
        "id": "15",
        "name": "Câmpia Est-Europeană"
      },
      "geometry": {
        "type": "Polygon",
        "coordinates": [
          [39.2941, 52.3392],
          [36.6322, 53.1165],
          [36.5968, 53.5255],
          [36.5366, 54.6206],
          [36.5204, 56.2163],
          [36.6872, 57.0864],
          [37.2415, 57.7523],
          [38.0776, 58.7297],
          [38.5833, 60.2647],
          [38.6833, 61.6738],
          [39.0308, 62.6483],
          [39.5085, 63.8647],
          [39.2458, 65.1643],
          [38.4556, 68.0535],
          [34.456, 71.3533],
          [32.3398, 74.887],
          [36.9839, 77.2917],
          [43.9167, 77.8286],
          [51.2721, 77.3486],
          [58.4618, 76.0469],
          [61.3802, 74.3721],
          [64.606, 68.2259],
          [64.7172, 63.5701],
          [64.281, 62.3653],
          [63.1895, 61.4116],
          [62.6934, 61.1274],
          [61.8893, 60.8719],
          [61.0336, 60.6041],
          [60.5978, 60.4504],
          [60.0309, 60.1517],
          [59.3323, 59.3705],
          [58.1887, 58.1136],
          [57.7788, 57.7088],
          [55.8829, 55.8277],
          [54.298, 55.2079],
          [51.5815, 53.7011],
          [50.0573, 52.9221],
          [49.8669, 52.7681],
          [49.6301, 52.5592],
          [49.25, 52.4632],
          [48.7247, 52.5312],
          [47.625, 52.4277],
          [47.2272, 52.3688],
          [47.0543, 52.3638],
          [45.9982, 52.3484],
          [44.0267, 52.1009],
          [42.2381, 52.0298],
          [39.6385, 52.128],
          [37.426, 51.9882],
          [35.3113, 52.2619],
          [39.2941, 52.3392]
        ]
      }
    }
  ]
}