{
  "type": "FeatureCollection",
  "generator": "overpass-turbo",
  "copyright": "The data included in this document is from www.openstreetmap.org. The data is made available under ODbL.",
  "timestamp": "2026-08-03T12:07:26Z",
  "features": [
    {
      "type": "Feature",
      "properties": {
        "@id": "node/25721593",
        "admin_level": "4",
        "capital": "4",
        "description": "283,375.87",
        "is_in": "Arad;România",
        "is_in:country": "România",
        "is_in:country_code": "RO",
        "is_in:county": "Arad",
        "name": "Arad",
        "name:ar": "أراد",
        "name:bg": "Арад",
        "name:de": "Arad",
        "name:en": "Arad",
        "name:es": "Arad",
        "name:fa": "آراد",
        "name:fr": "Arad",
        "name:hr": "Arad",
        "name:hu": "Arad",
        "name:kn": "ಆರದ್",
        "name:ko": "아라드",
        "name:la": "Aradinum",
        "name:ml": "അരാദ്",
        "name:ro": "Arad",
        "name:ru": "Арад",
        "name:sr": "Арад",
        "name:uk": "Арад",
        "old_postal_code": "2900",
        "place": "city",
        "population": "159074",
        "population:census:1992": "190114",
        "siruta:code": "9271",
        "siruta:code_sup": "9262",
        "siruta:county": "Arad",
        "siruta:county_code": "AR",
        "siruta:county_id": "2",
        "siruta:name_sup": "Arad",
        "siruta:type": "9",
        "source": "geo-spatial.org",
        "wikidata": "Q173591",
        "wikipedia": "ro:Arad"
      },
      "geometry": {
        "type": "Point",
        "coordinates": [
          21.3196342,
          46.1753793
        ]
      },
      "id": "node/25721593"
    },
    {
      "type": "Feature",
      "properties": {
        "@id": "node/26292942",
        "admin_level": "8",
        "capital": "4",
        "name": "Târgu Mureș",
        "name:ar": "ترجو موريش",
        "name:be": "Тыргу-Мурэш",
        "name:bg": "Търгу Муреш",
        "name:cs": "Târgu Mureș",
        "name:de": "Neumarkt am Mieresch",
        "name:el": "Τίργκου Μούρες",
        "name:en": "Târgu Mureș",
        "name:es": "Târgu Mureș",
        "name:fa": "ترگو مورش",
        "name:fr": "Târgu Mureș",
        "name:he": "טרגו מורש",
        "name:hr": "Târgu Mureș",
        "name:hu": "Marosvásárhely",
        "name:id": "Târgu Mureş",
        "name:ja": "トゥルグ・ムレシュ",
        "name:kn": "ತಾರ್ಗು ಮುರೇಶ್",
        "name:ko": "트르구무레슈",
        "name:la": "Novum Forum Siculorum",
        "name:li": "Târgu Mureş",
        "name:lt": "Tirgu Murešas",
        "name:ml": "ടിർഗു മുറെഷ്",
        "name:nn": "Târgu Mureş",
        "name:pl": "Târgu Mureș",
        "name:ro": "Târgu Mureș",
        "name:ru": "Тыргу-Муреш",
        "name:sk": "Târgu Mureş",
        "name:sl": "Târgu Mureș",
        "name:sr": "Таргу Муреш",
        "name:sv": "Târgu Mureş",
        "name:tg": "Тиргу-Муреш",
        "name:th": "ตีร์กูมูเรช",
        "name:uk": "Тиргу-Муреш",
        "name:vi": "Târgu Mureş",
        "name:zh": "特尔古穆列什",
        "old_postal_code": "4300",
        "place": "city",
        "population": "134290",
        "population:census:1992": "161216",
        "siruta:code": "114328",
        "siruta:code_sup": "114319",
        "siruta:county": "Mureș",
        "siruta:county_code": "MS",
        "siruta:county_id": "26",
        "siruta:name_sup": "Târgu Mureș",
        "siruta:type": "9",
        "website": "https://www.tirgumures.ro/",
        "wikidata": "Q186349",
        "wikipedia": "ro:Târgu Mureș"
      },
      "geometry": {
        "type": "Point",
        "coordinates": [
          24.561196,
          46.5446253
        ]
      },
      "id": "node/26292942"
    },
    {
      "type": "Feature",
      "properties": {
        "@id": "node/26980624",
        "admin_level": "4",
        "capital": "4",
        "is_in:country_code": "RO",
        "is_in:county": "Hunedoara",
        "name": "Deva",
        "name:ar": "ديفا",
        "name:de": "Diemrich",
        "name:en": "Deva",
        "name:es": "Deva",
        "name:fa": "دوا",
        "name:fr": "Deva",
        "name:hu": "Déva",
        "name:ml": "ഡെവ",
        "name:ru": "Дева",
        "name:sr": "Дева",
        "name:uk": "Дева",
        "old_name": "Déva",
        "old_postal_code": "2700",
        "place": "city",
        "population": "61123",
        "population:census:1992": "76207",
        "siruta:code": "86696",
        "siruta:code_sup": "86687",
        "siruta:county": "Hunedoara",
        "siruta:county_code": "HD",
        "siruta:county_id": "20",
        "siruta:name_sup": "Deva",
        "siruta:type": "9",
        "wikidata": "Q204850",
        "wikipedia": "ro:Deva"
      },
      "geometry": {
        "type": "Point",
        "coordinates": [
          22.9008611,
          45.8817402
        ]
      },
      "id": "node/26980624"
    },
    {
      "type": "Feature",
      "properties": {
        "@id": "node/27511706",
        "admin_level": "4",
        "alt_name:la": "Proilava",
        "capital": "4",
        "name": "Brăila",
        "name:ar": "برايلا",
        "name:bg": "Браила",
        "name:de": "Brăila",
        "name:el": "Βραΐλα",
        "name:en": "Brăila",
        "name:fa": "برئیلا",
        "name:he": "בראילה",
        "name:hr": "Brăila",
        "name:hu": "Brajla",
        "name:ka": "ბრეილა",
        "name:kn": "ಬ್ರೈಲಾ",
        "name:la": "Proilabum",
        "name:lt": "Breila",
        "name:ml": "ബ്രൈല",
        "name:pl": "Braiła",
        "name:ro": "Brăila",
        "name:ru": "Брэила",
        "name:sk": "Braila",
        "name:sr": "Браила",
        "name:tr": "Berâil",
        "name:uk": "Бреїла",
        "old_postal_code": "6100",
        "place": "city",
        "population": "180302",
        "population:census:1992": "234110",
        "siruta:code": "42691",
        "siruta:code_sup": "42682",
        "siruta:county": "Brăila",
        "siruta:county_code": "BR",
        "siruta:county_id": "9",
        "siruta:name_sup": "Brăila",
        "siruta:type": "9",
        "wikidata": "Q188478",
        "wikipedia": "ro:Brăila"
      },
      "geometry": {
        "type": "Point",
        "coordinates": [
          27.9742932,
          45.2716092
        ]
      },
      "id": "node/27511706"
    },
    {
      "type": "Feature",
      "properties": {
        "@id": "node/27511708",
        "admin_level": "4",
        "capital": "4",
        "name": "Focșani",
        "name:be": "Факшані",
        "name:bg": "Фокшани",
        "name:de": "Focșani",
        "name:el": "Φωξάνη",
        "name:en": "Focșani",
        "name:fa": "فوکشان",
        "name:fr": "Focșani",
        "name:hr": "Focșani",
        "name:hu": "Foksány",
        "name:ml": "ഫോക്ഷാനി",
        "name:pl": "Fokszany",
        "name:ro": "Focșani",
        "name:ru": "Фокшаны",
        "name:sr": "Фокшани",
        "name:uk": "Фокшани",
        "old_name:de": "Fokschan",
        "old_postal_code": "5300",
        "place": "city",
        "population": "97186",
        "population:census:1992": "100007",
        "siruta:code": "174753",
        "siruta:code_sup": "174744",
        "siruta:county": "Vrancea",
        "siruta:county_code": "VN",
        "siruta:county_id": "39",
        "siruta:name_sup": "Focșani",
        "siruta:type": "9",
        "website": "https://www.focsani.ro/",
        "wikidata": "Q192265",
        "wikipedia": "ro:Focșani"
      },
      "geometry": {
        "type": "Point",
        "coordinates": [
          27.1856921,
          45.697274
        ]
      },
      "id": "node/27511708"
    },
    {
      "type": "Feature",
      "properties": {
        "@id": "node/32591050",
        "addr:country": "RO",
        "admin_level": "4",
        "alt_name": "Cluj",
        "alt_name:hr": "Kluž",
        "capital": "4",
        "name": "Cluj-Napoca",
        "name:ar": "كلوج نابوكا",
        "name:az": "Kluj-Napoka",
        "name:ba": "Клуж-Напока",
        "name:be": "Клуж-Напока",
        "name:bg": "Клуж-Напока",
        "name:bn": "ক্লুজ-নাপোকা",
        "name:ce": "Клуж-Напока",
        "name:cs": "Kluž",
        "name:de": "Klausenburg",
        "name:el": "Κλουζ-Ναπόκα",
        "name:en": "Cluj-Napoca",
        "name:eo": "Kluĵo",
        "name:fa": "کلوژ-نپوکا",
        "name:fr": "Cluj-Napoca",
        "name:he": "קלוז'-נאפוקה",
        "name:hr": "Cluj-Napoca",
        "name:hu": "Kolozsvár",
        "name:hy": "Կլուժ-Նապոկա",
        "name:ja": "クルジュ＝ナポカ",
        "name:ka": "კლუჟ-ნაპოკა",
        "name:kn": "ಕ್ಲೂಜ್-ನಪೋಕ",
        "name:ko": "클루지나포카",
        "name:la": "Claudiopolis",
        "name:lt": "Klužas",
        "name:lv": "Kluža-Napoka",
        "name:mk": "Клуж-Напока",
        "name:ml": "ക്ലൂജ്-നാപ്പോക്ക",
        "name:mn": "Клуж-Напока",
        "name:mr": "क्लुज-नापोका",
        "name:os": "Клуж-Напокæ",
        "name:pl": "Kluż-Napoka",
        "name:ps": "کلوژ-ناپوکا",
        "name:ro": "Cluj-Napoca",
        "name:ru": "Клуж-Напока",
        "name:sk": "Kluž",
        "name:sq": "Kluzh-Napoka",
        "name:sr": "Клуж-Напока",
        "name:tg": "Клуж-Напока",
        "name:th": "กลุฌ-นาปอกา",
        "name:tr": "Kaloşvar",
        "name:tt": "Клуж-Напока",
        "name:ug": "كلۇژ",
        "name:uk": "Клуж-Напока",
        "name:ur": "کلوژ ناپوکا",
        "name:uz": "Kluj-napoka",
        "name:yi": "קלויזנבורג",
        "name:zh": "克卢日-纳波卡",
        "old_name:-1974": "Cluj",
        "old_name:hr": "Kološvar",
        "old_postal_code": "3400",
        "place": "city",
        "population": "324576",
        "population:census:1992": "328602",
        "short_name": "Cluj",
        "siruta:code": "54984",
        "siruta:code_sup": "54975",
        "siruta:county": "Cluj",
        "siruta:county_code": "CJ",
        "siruta:county_id": "12",
        "siruta:name_sup": "Cluj-Napoca",
        "siruta:type": "9",
        "wikidata": "Q100188",
        "wikipedia": "ro:Cluj-Napoca"
      },
      "geometry": {
        "type": "Point",
        "coordinates": [
          23.5899542,
          46.769379
        ]
      },
      "id": "node/32591050"
    },
    {
      "type": "Feature",
      "properties": {
        "@id": "node/34079017",
        "admin_level": "4",
        "alt_name:de": "Reschitz",
        "capital": "4",
        "is_in:country": "România",
        "name": "Reșița",
        "name:ar": "ريشيتسا",
        "name:de": "Reschitza",
        "name:en": "Reșița",
        "name:fa": "رشیتسا",
        "name:hr": "Rešica",
        "name:hu": "Resicabánya",
        "name:ml": "റെഷിറ്റ്സ",
        "name:ru": "Решица",
        "name:sr": "Решица",
        "name:uk": "Решица",
        "old_postal_code": "1700",
        "place": "city",
        "population": "73282",
        "population:census:1992": "92516",
        "siruta:code": "50807",
        "siruta:code_sup": "50790",
        "siruta:county": "Caraș-Severin",
        "siruta:county_code": "CS",
        "siruta:county_id": "11",
        "siruta:name_sup": "Reșița",
        "siruta:type": "9",
        "wikidata": "Q75634",
        "wikipedia": "ro:Reșița"
      },
      "geometry": {
        "type": "Point",
        "coordinates": [
          21.887861,
          45.289027
        ]
      },
      "id": "node/34079017"
    },
    {
      "type": "Feature",
      "properties": {
        "@id": "node/57116400",
        "admin_level": "4",
        "capital": "4",
        "is_in:country": "România",
        "is_in:county": "Timiș",
        "name": "Timișoara",
        "name:ar": "تيميشوارا",
        "name:az": "Timişoara",
        "name:be": "Тымішаара",
        "name:bg": "Тимишоара",
        "name:bn": "তিমিশোয়ারা",
        "name:bs": "Temišvar",
        "name:ce": "Тимишоара",
        "name:cs": "Temešvár",
        "name:cv": "Тимишоара",
        "name:de": "Temeswar",
        "name:el": "Τιμισοάρα",
        "name:en": "Timișoara",
        "name:es": "Timișoara",
        "name:fa": "تیمیشوارا",
        "name:fr": "Timișoara",
        "name:he": "טימישוארה",
        "name:hr": "Temišvar",
        "name:hu": "Temesvár",
        "name:hy": "Տիմիշոարա",
        "name:ie": "Timişoara",
        "name:ja": "ティミショアラ",
        "name:ka": "ტიმიშოარა",
        "name:kn": "ತಿಮಿಶೂವರ",
        "name:ko": "티미쇼아라",
        "name:la": "Timisvaria",
        "name:lt": "Timišoara",
        "name:lv": "Timišoara",
        "name:mk": "Темишвар",
        "name:ml": "ടിമിഷോറ",
        "name:mn": "Тимишоара",
        "name:mr": "तिमिसोआरा",
        "name:os": "Тимишоарæ",
        "name:ro": "Timișoara",
        "name:ru": "Тимишоара",
        "name:sk": "Temešvár",
        "name:sl": "Temišvar",
        "name:sq": "Temishvari",
        "name:sr": "Темишвар",
        "name:tg": "Тимишоара",
        "name:th": "ตีมีชออารา",
        "name:tr": "Temeşvar",
        "name:tt": "Timişoara",
        "name:uk": "Тімішоара",
        "name:ur": "تیمیشوارا",
        "name:uz": "Timishoare",
        "name:zh": "蒂米什瓦拉",
        "old_name:de": "Temeschwar;Temeschburg",
        "old_name:tr": "Tımışvar;Tamışvar",
        "old_postal_code": "1900",
        "place": "city",
        "population": "319279",
        "population:census:1992": "334115",
        "siruta:code": "155252",
        "siruta:code_sup": "155243",
        "siruta:county": "Timiș",
        "siruta:county_code": "TM",
        "siruta:county_id": "35",
        "siruta:name_sup": "Timișoara",
        "siruta:type": "9",
        "wikidata": "Q83404",
        "wikipedia": "ro:Timișoara"
      },
      "geometry": {
        "type": "Point",
        "coordinates": [
          21.2257474,
          45.7538355
        ]
      },
      "id": "node/57116400"
    },
    {
      "type": "Feature",
      "properties": {
        "@id": "node/60018211",
        "addr:postcode": "100xxx",
        "admin_level": "6",
        "capital": "4",
        "name": "Ploiești",
        "name:ar": "بلويشت",
        "name:az": "Ployeşti",
        "name:be": "Плаешці",
        "name:bg": "Плоещ",
        "name:cs": "Ploješť",
        "name:de": "Ploiești",
        "name:el": "Πλοϊέστι",
        "name:en": "Ploiești",
        "name:eu": "Ploieşti",
        "name:fa": "پلویشت",
        "name:gd": "Ploieşti",
        "name:gl": "Ploieşti",
        "name:he": "פלוישט",
        "name:hr": "Ploiești",
        "name:hu": "Ploiești",
        "name:hy": "Պլոեշտի",
        "name:id": "Ploieşti",
        "name:ja": "プロイェシュティ",
        "name:ka": "პლოიეშტი",
        "name:kn": "ಪ್ಲೋಯಶ್ಟಿ",
        "name:ko": "플로이에슈티",
        "name:la": "Ploieşti",
        "name:lt": "Ploještis",
        "name:lv": "Ploješti",
        "name:mk": "Плоешт",
        "name:ml": "പ്ലോയെഷ്ട്",
        "name:mn": "Плоешти",
        "name:os": "Плоешти",
        "name:pl": "Ploeszti",
        "name:ro": "Ploiești",
        "name:ru": "Плоешты",
        "name:sk": "Ploješť",
        "name:sr": "Плоешти",
        "name:tg": "Плоешти",
        "name:th": "ปลอเยชต์",
        "name:tr": "Ploiești",
        "name:tt": "Плоешт",
        "name:uk": "Плоєшті",
        "name:ur": "پلویشتی",
        "name:uz": "Ployeshti",
        "name:vo": "Ploieşti",
        "name:zh": "普洛耶什蒂",
        "old_postal_code": "2000",
        "place": "city",
        "population": "224406",
        "population:census:1992": "252715",
        "siruta:code": "130543",
        "siruta:code_sup": "130543",
        "siruta:county": "Prahova",
        "siruta:county_code": "PH",
        "siruta:county_id": "29",
        "siruta:name_sup": "Ploiesti",
        "siruta:type": "9",
        "wikidata": "Q179585",
        "wikipedia": "ro:Ploiești"
      },
      "geometry": {
        "type": "Point",
        "coordinates": [
          26.0236504,
          44.9417468
        ]
      },
      "id": "node/60018211"
    },
    {
      "type": "Feature",
      "properties": {
        "@id": "node/60710142",
        "admin_level": "4",
        "alt_name:hu": "Oláhbodza",
        "capital": "4",
        "name": "Buzău",
        "name:ar": "بوزاو",
        "name:az": "Buzeu",
        "name:be": "Бузэў",
        "name:bg": "Бузъу",
        "name:de": "Buzău",
        "name:el": "Μπουζάου",
        "name:en": "Buzău",
        "name:fa": "بوزائو",
        "name:fr": "Buzău",
        "name:he": "בוזאו",
        "name:hr": "Buzău",
        "name:hu": "Bodzavásár",
        "name:kn": "ಬೂಝೌ",
        "name:lt": "Buzeu",
        "name:ml": "ബുസൗ",
        "name:ro": "Buzău",
        "name:ru": "Бузэу",
        "name:sr": "Бузау",
        "name:uk": "Бузеу",
        "old_name": "Busäu",
        "old_postal_code": "5100",
        "place": "city",
        "population": "115494",
        "population:census:1992": "148087",
        "siruta:code": "44827",
        "siruta:code_sup": "44818",
        "siruta:county": "Buzău",
        "siruta:county_code": "BZ",
        "siruta:county_id": "10",
        "siruta:name_sup": "Buzău",
        "siruta:type": "9",
        "wikidata": "Q201404",
        "wikipedia": "ro:Buzău"
      },
      "geometry": {
        "type": "Point",
        "coordinates": [
          26.8306557,
          45.1490064
        ]
      },
      "id": "node/60710142"
    },
    {
      "type": "Feature",
      "properties": {
        "@id": "node/99967143",
        "admin_level": "4",
        "capital": "4",
        "name": "Slobozia",
        "name:ar": "سلوبوزيا",
        "name:bg": "Слобозия",
        "name:el": "Σλομπόζια",
        "name:fa": "سلوبوزیا",
        "name:lt": "Slobozija",
        "name:ml": "സ്ലോബോസിയ",
        "name:ru": "Слобозия",
        "name:sr": "Слобозија",
        "name:uk": "Слобозія",
        "old_name:de": "Freistadt",
        "old_postal_code": "8400",
        "place": "city",
        "population": "45891",
        "population:census:1992": "52553",
        "siruta:code": "92667",
        "siruta:code_sup": "92658",
        "siruta:county": "Ialomița",
        "siruta:county_code": "IL",
        "siruta:county_id": "21",
        "siruta:name_sup": "Slobozia",
        "siruta:type": "9",
        "wikidata": "Q215723",
        "wikipedia": "ro:Slobozia"
      },
      "geometry": {
        "type": "Point",
        "coordinates": [
          27.3618477,
          44.5635999
        ]
      },
      "id": "node/99967143"
    },
    {
      "type": "Feature",
      "properties": {
        "@id": "node/100035698",
        "admin_level": "4",
        "capital": "4",
        "name": "Galați",
        "name:ar": "غالاتس",
        "name:az": "Qalas",
        "name:be": "Галац",
        "name:bg": "Галац",
        "name:ce": "Галац",
        "name:cs": "Galați",
        "name:de": "Galatz",
        "name:el": "Γκαλάτσι",
        "name:en": "Galați",
        "name:eo": "Galați",
        "name:fa": "گالاتسی",
        "name:he": "גאלאץ",
        "name:hr": "Galați",
        "name:hu": "Galac",
        "name:hy": "Գալաց",
        "name:id": "Galați",
        "name:is": "Galați",
        "name:ja": "ガラツィ",
        "name:kk": "Галац",
        "name:kn": "ಗಲಾಟ್ಸಿ",
        "name:ko": "갈라치",
        "name:ky": "Галац",
        "name:la": "Galați",
        "name:lt": "Galacis",
        "name:lv": "Galaca",
        "name:mk": "Галац",
        "name:ml": "ഗാലാറ്റ്സ്",
        "name:mn": "Галац",
        "name:ms": "Galați",
        "name:nl": "Galați",
        "name:nn": "Galați",
        "name:os": "Галац",
        "name:pl": "Gałacz",
        "name:pt": "Galați",
        "name:ro": "Galați",
        "name:ru": "Галац",
        "name:sk": "Galac",
        "name:sq": "Galați",
        "name:sr": "Галац",
        "name:sv": "Galați",
        "name:tg": "Галатс",
        "name:th": "กาลัตส์",
        "name:tr": "Galaç",
        "name:tt": "Галац",
        "name:uk": "Галац",
        "name:ur": "گالاتسی",
        "name:uz": "Galats",
        "name:vi": "Galați",
        "name:vo": "Galați",
        "name:zh": "加拉茨",
        "old_name:tr": "Kalas",
        "old_postal_code": "6200",
        "place": "city",
        "population": "249432",
        "population:census:1992": "231204",
        "siruta:code": "75105",
        "siruta:code_sup": "75098",
        "siruta:county": "Galați",
        "siruta:county_code": "GL",
        "siruta:county_id": "17",
        "siruta:name_sup": "Galați",
        "siruta:type": "9",
        "wikidata": "Q170996",
        "wikipedia": "ro:Galați"
      },
      "geometry": {
        "type": "Point",
        "coordinates": [
          28.0549395,
          45.4338215
        ]
      },
      "id": "node/100035698"
    },
    {
      "type": "Feature",
      "properties": {
        "@id": "node/116851075",
        "admin_level": "4",
        "alt_name:cs": "Trhoviště",
        "alt_name:de": "Tergowisch",
        "capital": "4",
        "name": "Târgoviște",
        "name:ar": "ترغوشتة",
        "name:bg": "Търговище",
        "name:cs": "Târgoviște",
        "name:de": "Târgoviște",
        "name:en": "Târgoviște",
        "name:fa": "ترگوویشته",
        "name:he": "טרגובישטה",
        "name:hr": "Târgoviște",
        "name:hu": "Tergovistye",
        "name:kn": "ತಾರ್ಗೊವಿಶ್ತೆ",
        "name:lt": "Tirgovištė",
        "name:ml": "ടിർഗോവിഷ്ടെ",
        "name:ru": "Тырговиште",
        "name:sr": "Трговиште",
        "name:uk": "Тирговіште",
        "old_postal_code": "200",
        "place": "city",
        "population": "79610",
        "population:census:1992": "97244",
        "siruta:code": "65351",
        "siruta:code_sup": "65342",
        "siruta:county": "Dâmbovița",
        "siruta:county_code": "DB",
        "siruta:county_id": "15",
        "siruta:name_sup": "Târgoviște",
        "siruta:type": "9",
        "wikidata": "Q188673",
        "wikipedia": "ro:Târgoviște"
      },
      "geometry": {
        "type": "Point",
        "coordinates": [
          25.462816,
          44.9267709
        ]
      },
      "id": "node/116851075"
    },
    {
      "type": "Feature",
      "properties": {
        "@id": "node/119510228",
        "admin_level": "4",
        "alt_name:mk": "Ѓурѓево",
        "capital": "4",
        "name": "Giurgiu",
        "name:ar": "جورجيو",
        "name:az": "Curcu",
        "name:be": "Джурджу",
        "name:bg": "Гюргево",
        "name:de": "Giurgiu",
        "name:el": "Τζιούρτζιου",
        "name:en": "Giurgiu",
        "name:fa": "جورجو",
        "name:he": "ג'יורג'יו",
        "name:hr": "Giurgiu",
        "name:hu": "Gyurgyevó",
        "name:ka": "ჯურჯუ",
        "name:lt": "Džurdžu",
        "name:mk": "Џурџу",
        "name:ml": "ജൂർജൂ",
        "name:ro": "Giurgiu",
        "name:ru": "Джурджу",
        "name:sr": "Ђурђу",
        "name:tr": "Yergöğü",
        "name:uk": "Джурджу",
        "old_name:de": "Zurz",
        "old_name:hr": "Đurđevo",
        "old_postal_code": "8375",
        "place": "city",
        "population": "61353",
        "population:census:1992": "74191",
        "siruta:code": "100530",
        "siruta:code_sup": "100521",
        "siruta:county": "Giurgiu",
        "siruta:county_code": "GR",
        "siruta:county_id": "52",
        "siruta:name_sup": "Giurgiu",
        "siruta:type": "9",
        "wikidata": "Q202351",
        "wikipedia": "ro:Giurgiu"
      },
      "geometry": {
        "type": "Point",
        "coordinates": [
          25.9656448,
          43.8961275
        ]
      },
      "id": "node/119510228"
    },
    {
      "type": "Feature",
      "properties": {
        "@id": "node/126278515",
        "admin_level": "4",
        "capital": "4",
        "is_in:country": "Romania",
        "is_in:county": "Mehedinți",
        "name": "Drobeta-Turnu Severin",
        "name:ar": "دروبيتا تورنو سيفيرين",
        "name:de": "Turm Severin",
        "name:en": "Drobeta-Turnu Severin",
        "name:es": "Drobeta-Turnu Severin",
        "name:fa": "دروبتا-تورنو سورین",
        "name:fr": "Drobeta-Turnu Severin",
        "name:hu": "Szörényvár",
        "name:ml": "ഡ്രോബെറ്റ-ടുർനു സെവെറിൻ",
        "name:ru": "Дробета-Турну-Северин",
        "name:sr": "Дробета-Турну Северин",
        "name:uk": "Дробета-Турну-Северін",
        "old_name": "Drobeta",
        "old_postal_code": "1500",
        "place": "city",
        "population": "92617",
        "population:census:1992": "108204",
        "population:date": "2011",
        "siruta:code": "109782",
        "siruta:code_sup": "109773",
        "siruta:county": "Mehedinți",
        "siruta:county_code": "MH",
        "siruta:county_id": "25",
        "siruta:name_sup": "DrobetaTurnu Severin",
        "siruta:type": "9",
        "website": "http://www.drobetaturnuseverin.ro/",
        "wikidata": "Q193890",
        "wikipedia": "ro:Drobeta-Turnu Severin"
      },
      "geometry": {
        "type": "Point",
        "coordinates": [
          22.6531975,
          44.6257835
        ]
      },
      "id": "node/126278515"
    },
    {
      "type": "Feature",
      "properties": {
        "@id": "node/126383941",
        "admin_level": "4",
        "capital": "4",
        "name": "Pitești",
        "name:ar": "بيتيشت",
        "name:be": "Пітэшты",
        "name:bg": "Питещ",
        "name:de": "Pitești",
        "name:el": "Πιτέστι",
        "name:en": "Pitești",
        "name:es": "Pitești",
        "name:fa": "پیتشت",
        "name:fr": "Pitești",
        "name:he": "פיטשט",
        "name:hr": "Pitești",
        "name:hu": "Pitești",
        "name:kn": "ಪಿಟೇಷ್ಟಿ",
        "name:lt": "Piteštis",
        "name:ml": "പിറ്റെഷ്ട്",
        "name:pl": "Piteszti",
        "name:ro": "Pitești",
        "name:ru": "Питешты",
        "name:sr": "Питешти",
        "name:uk": "Пітешть",
        "old_name:de": "Pitesk",
        "old_postal_code": "300",
        "place": "city",
        "population": "155383",
        "population:census:1992": "179337",
        "siruta:code": "13178",
        "siruta:code_sup": "13169",
        "siruta:county": "Argeș",
        "siruta:county_code": "AG",
        "siruta:county_id": "3",
        "siruta:name_sup": "Pitești",
        "siruta:type": "9",
        "source": "geo-spatial.org",
        "wikidata": "Q187938",
        "wikipedia": "ro:Pitești"
      },
      "geometry": {
        "type": "Point",
        "coordinates": [
          24.8721156,
          44.8572882
        ]
      },
      "id": "node/126383941"
    },
    {
      "type": "Feature",
      "properties": {
        "@id": "node/128510650",
        "admin_level": "4",
        "alt_name:de": "Neustadt",
        "capital": "4",
        "is_in:country": "România",
        "is_in:county": "Maramureș",
        "name": "Baia Mare",
        "name:de": "Baia Mare",
        "name:fa": "بایا ماره",
        "name:hu": "Nagybánya",
        "name:kn": "ಬಾಯ ಮರೇ",
        "name:la": "Rivulus Dominarum",
        "name:ml": "ബായ-മാറെ",
        "name:ru": "Бая-Маре",
        "name:sk": "Veľká Baňa",
        "name:sr": "Баја Маре",
        "name:uk": "Бая-Маре",
        "old_name:de": "Frauenbach",
        "old_postal_code": "4800",
        "place": "city",
        "population": "123738",
        "population:census:1992": "148363",
        "siruta:code": "106327",
        "siruta:code_sup": "106318",
        "siruta:county": "Maramureș",
        "siruta:county_code": "MM",
        "siruta:county_id": "24",
        "siruta:name_sup": "Baia Mare",
        "siruta:type": "9",
        "wikidata": "Q185280",
        "wikipedia": "ro:Baia Mare"
      },
      "geometry": {
        "type": "Point",
        "coordinates": [
          23.5719843,
          47.6565584
        ]
      },
      "id": "node/128510650"
    },
    {
      "type": "Feature",
      "properties": {
        "@id": "node/128556778",
        "admin_level": "4",
        "capital": "4",
        "name": "Suceava",
        "name:cs": "Sučava",
        "name:de": "Suczawa",
        "name:el": "Σουτσεάβα",
        "name:fa": "سوچاوا",
        "name:hu": "Szucsáva",
        "name:lt": "Sučava",
        "name:ml": "സുച്ചാവ",
        "name:pl": "Suczawa",
        "name:ru": "Сучава",
        "name:sr": "Сучава",
        "name:uk": "Сучава",
        "old_postal_code": "5800",
        "place": "city",
        "population": "92121",
        "population:census:1992": "114462",
        "siruta:code": "146272",
        "siruta:code_sup": "146263",
        "siruta:county": "Suceava",
        "siruta:county_code": "SV",
        "siruta:county_id": "33",
        "siruta:name_sup": "Suceava",
        "siruta:type": "9",
        "wikidata": "Q46400",
        "wikipedia": "ro:Suceava"
      },
      "geometry": {
        "type": "Point",
        "coordinates": [
          26.2522599,
          47.647001
        ]
      },
      "id": "node/128556778"
    },
    {
      "type": "Feature",
      "properties": {
        "@id": "node/128561166",
        "admin_level": "4",
        "alt_name:de": "Nösen",
        "capital": "4",
        "is_in": "Bistrița-Năsăud,România,Romania",
        "is_in:country": "România",
        "is_in:county": "Bistrița-Năsăud",
        "name": "Bistrița",
        "name:de": "Bistritz",
        "name:fa": "بیستریتسا",
        "name:gem": "Bistritz",
        "name:hu": "Beszterce",
        "name:lt": "Bistrica",
        "name:ml": "ബിസ്ട്രിറ്റ്സ",
        "name:pl": "Bystrzyca",
        "name:ru": "Бистрица",
        "name:sk": "Sedmohradská Bystrica",
        "name:sr": "Бистрица",
        "name:uk": "Бистриця",
        "old_name": "Bistritz",
        "old_name:de": "Bistritz",
        "old_postal_code": "4400",
        "place": "city",
        "population": "75076",
        "population:census:1992": "82366",
        "siruta:code": "32401",
        "siruta:code_sup": "32394",
        "siruta:county": "Bistrița-Năsăud",
        "siruta:county_code": "BN",
        "siruta:county_id": "6",
        "siruta:name_sup": "Bistrița",
        "siruta:type": "9",
        "wikidata": "Q187205",
        "wikipedia": "ro:Bistrița"
      },
      "geometry": {
        "type": "Point",
        "coordinates": [
          24.4963949,
          47.1327012
        ]
      },
      "id": "node/128561166"
    },
    {
      "type": "Feature",
      "properties": {
        "@id": "node/128566747",
        "admin_level": "4",
        "alt_name:de": "Sankt Georgen",
        "alt_name:hu": "Sepsiszentgyörgy",
        "alt_name:ml": "സെന്റ് ജോർജ്ജ്",
        "alt_name:ro": "Sfântu Gheorghe",
        "capital": "4",
        "name": "Sfântu Gheorghe",
        "name:ar": "سفنتو جيورجي",
        "name:be": "Сфынту-Георгэ",
        "name:bg": "Сфънту Георге",
        "name:de": "Sfântu Gheorghe",
        "name:el": "Σφίντου Γκεόργκε",
        "name:en": "Sfântu Gheorghe",
        "name:fa": "سفنتو گئورگه",
        "name:fr": "Sfântu Gheorghe",
        "name:hr": "Sfântu Gheorghe",
        "name:hu": "Sepsiszentgyörgy",
        "name:ka": "სფინტუ-გეორგე",
        "name:lt": "Sfintu Georgė",
        "name:ml": "സ്ഫെന്റു ഗിയോർഗെ",
        "name:ro": "Sfântu Gheorghe",
        "name:ru": "Сфынту-Георге",
        "name:sr": "Свети Ђорђе",
        "name:uk": "Сфинту-Георге",
        "old_postal_code": "4000",
        "place": "city",
        "population": "56006",
        "population:census:1992": "67220",
        "siruta:code": "63401",
        "siruta:code_sup": "63394",
        "siruta:county": "Covasna",
        "siruta:county_code": "CV",
        "siruta:county_id": "14",
        "siruta:name_sup": "Sepsiszentgyörgy",
        "siruta:type": "9",
        "wikidata": "Q202362",
        "wikipedia": "ro:Sfântu Gheorghe"
      },
      "geometry": {
        "type": "Point",
        "coordinates": [
          25.7865367,
          45.8659935
        ]
      },
      "id": "node/128566747"
    },
    {
      "type": "Feature",
      "properties": {
        "@id": "node/128657320",
        "admin_level": "4",
        "capital": "4",
        "name": "Tulcea",
        "name:ar": "تولشا",
        "name:be": "Тулча",
        "name:bg": "Тулча",
        "name:crh": "Tulça",
        "name:cs": "Tulcea",
        "name:de": "Tulcea",
        "name:el": "Τούλτσεα",
        "name:fa": "تولچا",
        "name:he": "טולצ'אה",
        "name:hr": "Tulcea",
        "name:hu": "Tulcsa",
        "name:hy": "Տուլչա",
        "name:ja": "トゥルチャ",
        "name:ko": "툴차",
        "name:la": "Aegyssos",
        "name:lt": "Tulča",
        "name:lv": "Tulča",
        "name:mk": "Тулча",
        "name:ml": "ടുൽച",
        "name:nl": "Tulcea",
        "name:pl": "Tulcza",
        "name:ro": "Tulcea",
        "name:ru": "Тулча",
        "name:sr": "Тулча",
        "name:tg": "Тулча",
        "name:tr": "Tulça",
        "name:tt": "Тулчә",
        "name:uk": "Тульча",
        "name:ur": "تولچا",
        "name:zh": "圖爾恰",
        "old_name:de": "Tultscha",
        "old_postal_code": "8800",
        "place": "city",
        "population": "73707",
        "population:census:1992": "97662",
        "population:de:1940": "143",
        "siruta:code": "159623",
        "siruta:code_sup": "159614",
        "siruta:county": "Tulcea",
        "siruta:county_code": "TL",
        "siruta:county_id": "36",
        "siruta:name_sup": "Tulcea",
        "siruta:type": "9",
        "wikidata": "Q11585",
        "wikipedia": "ro:Tulcea"
      },
      "geometry": {
        "type": "Point",
        "coordinates": [
          28.8016348,
          45.177518
        ]
      },
      "id": "node/128657320"
    },
    {
      "type": "Feature",
      "properties": {
        "@id": "node/129984582",
        "admin_level": "4",
        "alt_name:de": "Jassy",
        "capital": "4",
        "name": "Iași",
        "name:ar": "ياش",
        "name:az": "Yassı",
        "name:be": "Ясы",
        "name:bg": "Яш",
        "name:ce": "Яссы",
        "name:cs": "Jasy",
        "name:de": "Iași",
        "name:el": "Ιάσιο",
        "name:fa": "یاش",
        "name:ga": "Iaşi",
        "name:he": "יאשי",
        "name:hr": "Iași",
        "name:hu": "Jászvásár",
        "name:hy": "Յաշ",
        "name:ie": "Iaşi",
        "name:is": "Iaşi",
        "name:ja": "ヤシ",
        "name:ka": "იასი",
        "name:kk": "Яссы",
        "name:kn": "ಯಾಶಿ",
        "name:ko": "야시",
        "name:la": "Iassium",
        "name:lt": "Jasai",
        "name:lv": "Jasi",
        "name:mk": "Јаш",
        "name:ml": "യാഷ്",
        "name:mn": "Яш",
        "name:mr": "याश",
        "name:os": "Яссы",
        "name:pl": "Jassy",
        "name:ro": "Iași",
        "name:ru": "Яссы",
        "name:sk": "Jasy",
        "name:sl": "Iași",
        "name:sq": "Jashi",
        "name:sr": "Јаши",
        "name:tg": "Яш",
        "name:th": "ยัช",
        "name:tr": "Yaş",
        "name:tt": "Яшь",
        "name:uk": "Ясси",
        "name:ur": "یاشی",
        "name:uz": "Yassi",
        "name:vo": "Iaşi",
        "name:wa": "Iaşi",
        "name:yi": "יאס",
        "name:zh": "雅西",
        "old_name:de": "Jaßenmarkt",
        "old_name:hr": "Jaš",
        "old_postal_code": "6600",
        "place": "city",
        "population": "290422",
        "population:census:1992": "344425",
        "siruta:code": "95079",
        "siruta:code_sup": "95060",
        "siruta:county": "Iași",
        "siruta:county_code": "IS",
        "siruta:county_id": "22",
        "siruta:name_sup": "Iași",
        "siruta:type": "9",
        "wikidata": "Q46852",
        "wikipedia": "ro:Iași"
      },
      "geometry": {
        "type": "Point",
        "coordinates": [
          27.5837814,
          47.1615598
        ]
      },
      "id": "node/129984582"
    },
    {
      "type": "Feature",
      "properties": {
        "@id": "node/129993092",
        "admin_level": "4",
        "alt_name:de": "Waltenberg",
        "capital": "4",
        "is_in:country": "România",
        "name": "Zalău",
        "name:de": "Zillenmarkt",
        "name:el": "Ζαλάου",
        "name:fa": "زلئو",
        "name:hu": "Zilah",
        "name:lt": "Zaleu",
        "name:ml": "സലൗ",
        "name:ro": "Zalău",
        "name:ru": "Залэу",
        "name:sr": "Залау",
        "name:uk": "Залеу",
        "old_name": "Zilah",
        "old_postal_code": "4700",
        "place": "city",
        "population": "56202",
        "population:census:1992": "67977",
        "siruta:code": "139713",
        "siruta:code_sup": "139704",
        "siruta:county": "Sălaj",
        "siruta:county_code": "SJ",
        "siruta:county_id": "31",
        "siruta:name_sup": "Zalău",
        "siruta:type": "9",
        "wikidata": "Q145292",
        "wikipedia": "ro:Zalău"
      },
      "geometry": {
        "type": "Point",
        "coordinates": [
          23.0562143,
          47.1819416
        ]
      },
      "id": "node/129993092"
    },
    {
      "type": "Feature",
      "properties": {
        "@id": "node/130388465",
        "admin_level": "4",
        "alt_name:pl": "Botoszań",
        "capital": "4",
        "name": "Botoșani",
        "name:bg": "Ботошани",
        "name:de": "Botoșani",
        "name:el": "Μποτοσάνι",
        "name:en": "Botoșani",
        "name:fa": "بوتوشن",
        "name:he": "בוטושאן",
        "name:hr": "Botoșani",
        "name:hu": "Botosány",
        "name:ml": "ബോറ്റോഷാൻ",
        "name:pl": "Botoszany",
        "name:ro": "Botoșani",
        "name:ru": "Ботошаны",
        "name:sr": "Ботошани",
        "name:uk": "Ботошані",
        "old_name:de": "Botoschan",
        "old_postal_code": "6800",
        "place": "city",
        "population": "106847",
        "population:census:1992": "126145",
        "siruta:code": "35740",
        "siruta:code_sup": "35731",
        "siruta:county": "Botoșani",
        "siruta:county_code": "BT",
        "siruta:county_id": "7",
        "siruta:name_sup": "Botoșani",
        "siruta:type": "9",
        "wikidata": "Q178855",
        "wikipedia": "ro:Botoșani"
      },
      "geometry": {
        "type": "Point",
        "coordinates": [
          26.6599858,
          47.7450706
        ]
      },
      "id": "node/130388465"
    },
    {
      "type": "Feature",
      "properties": {
        "@id": "node/130484930",
        "admin_level": "4",
        "capital": "4",
        "name": "Piatra-Neamț",
        "name:cs": "Piatra-Neamț",
        "name:de": "Piatra-Neamț",
        "name:fa": "پیاترا-نیمتس",
        "name:hu": "Piatra-Neamț",
        "name:ru": "Пьятра-Нямц",
        "name:sr": "Пјатра-Неамц",
        "name:sr-Latn": "Piatra-Neamț",
        "name:uk": "П'ятра-Нямц",
        "old_postal_code": "5600",
        "place": "city",
        "population": "79679",
        "population:census:1992": "121322",
        "population:date": "2023-01-31",
        "siruta:code": "120735",
        "siruta:code_sup": "120726",
        "siruta:county": "Neamț",
        "siruta:county_code": "NT",
        "siruta:county_id": "27",
        "siruta:name_sup": "Piatra-Neamț",
        "siruta:type": "9",
        "source:population": "https://neamt.insse.ro/comunicate-de-presa/recensamantul-populatiei-si-locuintelor-runda-2021-date-provizorii-pentru-judetul-neamt/",
        "website": "https://www.primariapn.ro/"
      },
      "geometry": {
        "type": "Point",
        "coordinates": [
          26.3695046,
          46.9319894
        ]
      },
      "id": "node/130484930"
    },
    {
      "type": "Feature",
      "properties": {
        "@id": "node/138009623",
        "admin_level": "4",
        "alt_name": "Tîrgu Jiu",
        "capital": "4",
        "int_name": "Târgu Jiu",
        "is_in:country": "România",
        "is_in:country_code": "RO",
        "is_in:county": "Gorj",
        "name": "Târgu Jiu",
        "name:ar": "ترجو جيو",
        "name:de": "Tergoschwyl",
        "name:el": "Τίργκου Ζίου",
        "name:en": "Târgu Jiu",
        "name:es": "Târgu Jiu",
        "name:fa": "ترگو ژی",
        "name:fr": "Târgu Jiu",
        "name:hu": "Zsilvásárhely",
        "name:lt": "Tirgu Žiu",
        "name:ml": "ടിർഗു ജിയു",
        "name:ru": "Тыргу-Жиу",
        "name:sr": "Таргу Жију",
        "name:uk": "Тиргу-Жіу",
        "old_postal_code": "1400",
        "place": "city",
        "population": "82504",
        "population:census:1992": "93734",
        "siruta:code": "77821",
        "siruta:code_sup": "77812",
        "siruta:county": "Gorj",
        "siruta:county_code": "GJ",
        "siruta:county_id": "18",
        "siruta:name_sup": "Târgu Jiu",
        "siruta:type": "9",
        "wikidata": "Q202357",
        "wikipedia": "ro:Târgu Jiu"
      },
      "geometry": {
        "type": "Point",
        "coordinates": [
          23.2728118,
          45.0422947
        ]
      },
      "id": "node/138009623"
    },
    {
      "type": "Feature",
      "properties": {
        "@id": "node/138033311",
        "admin_level": "4",
        "capital": "4",
        "name": "Slatina",
        "name:ar": "سلاتينا",
        "name:bg": "Слатина",
        "name:el": "Σλάτινα",
        "name:fa": "ستیئا",
        "name:ml": "സ്ലാറ്റിന",
        "name:ru": "Слатина",
        "name:sr": "Слатина",
        "name:uk": "Слатіна",
        "old_postal_code": "500",
        "place": "city",
        "population": "70293",
        "population:census:1992": "84267",
        "siruta:code": "125356",
        "siruta:code_sup": "125347",
        "siruta:county": "Olt",
        "siruta:county_code": "OT",
        "siruta:county_id": "28",
        "siruta:name_sup": "Slatina",
        "siruta:type": "9",
        "wikidata": "Q207074",
        "wikipedia": "ro:Slatina, România"
      },
      "geometry": {
        "type": "Point",
        "coordinates": [
          24.3631837,
          44.4299971
        ]
      },
      "id": "node/138033311"
    },
    {
      "type": "Feature",
      "properties": {
        "@id": "node/140109135",
        "admin_level": "4",
        "capital": "4",
        "name": "Râmnicu Vâlcea",
        "name:ar": "رمينكو فيلتشا",
        "name:de": "Râmnicu Vâlcea",
        "name:el": "Ρίμνικου Βίλτσεα",
        "name:en": "Râmnicu Vâlcea",
        "name:es": "Râmnicu Vâlcea",
        "name:fa": "رمنیکو ولچا",
        "name:fr": "Râmnicu Vâlcea",
        "name:kn": "ರಮ್ನಿಕು ವಲ್ಚೇ",
        "name:lt": "Rimniku Vilča",
        "name:ml": "റിംനിക്കു വില്‍ച",
        "name:ru": "Рымнику-Вылча",
        "name:sr": "Рамнику Валча",
        "name:uk": "Римніку-Вилча",
        "old_name": "Rîmnicu Vîlcea",
        "old_name:de": "Wultsch",
        "old_postal_code": "1000",
        "place": "city",
        "population": "98776",
        "population:census:1992": "107074",
        "siruta:code": "167482",
        "siruta:code_sup": "167473",
        "siruta:county": "Vâlcea",
        "siruta:county_code": "VL",
        "siruta:county_id": "38",
        "siruta:name_sup": "Râmnicu Vâlcea",
        "siruta:type": "9",
        "wikidata": "Q192758",
        "wikipedia": "ro:Râmnicu Vâlcea"
      },
      "geometry": {
        "type": "Point",
        "coordinates": [
          24.3647209,
          45.1031731
        ]
      },
      "id": "node/140109135"
    },
    {
      "type": "Feature",
      "properties": {
        "@id": "node/140154764",
        "admin_level": "4",
        "capital": "4",
        "designation": "Областен център",
        "name": "Alexandria",
        "name:ar": "أليكساندريا",
        "name:bg": "Александрия",
        "name:de": "Alexandria",
        "name:el": "Αλεξάντρια",
        "name:en": "Alexandria",
        "name:es": "Alexandria",
        "name:fa": "الکزاندریا",
        "name:fr": "Alexandria",
        "name:hr": "Alexandria",
        "name:hu": "Alexandria",
        "name:lt": "Aleksandrija",
        "name:ml": "അലക്സാണ്ട്രിയ",
        "name:pl": "Aleksandria",
        "name:ro": "Alexandria",
        "name:ru": "Александрия",
        "name:sr": "Александрија",
        "name:uk": "Александрія",
        "old_postal_code": "700",
        "place": "city",
        "population": "45434",
        "population:census:1992": "58478",
        "siruta:code": "151807",
        "siruta:code_sup": "151790",
        "siruta:county": "Teleorman",
        "siruta:county_code": "TR",
        "siruta:county_id": "34",
        "siruta:name_sup": "Alexandria",
        "siruta:type": "9",
        "wikidata": "Q209929",
        "wikipedia": "ro:Alexandria, România"
      },
      "geometry": {
        "type": "Point",
        "coordinates": [
          25.3288462,
          43.9702236
        ]
      },
      "id": "node/140154764"
    },
    {
      "type": "Feature",
      "properties": {
        "@id": "node/142172498",
        "admin_level": "4",
        "alt_name:hu": "Sicolsburgum",
        "capital": "4",
        "name": "Miercurea Ciuc",
        "name:de": "Szeklerburg",
        "name:fa": "می‌یرکورئا چوک",
        "name:hu": "Csíkszereda",
        "name:la": "Oppidum Mercurium",
        "name:lt": "Mierkuria-Čukas",
        "name:ml": "മെർക്കുറിയ ചുക്ക്",
        "name:ru": "Меркуря-Чук",
        "name:sr": "Мијеркуреја Чук",
        "name:uk": "М'єркуря-Чук",
        "old_postal_code": "4100",
        "place": "city",
        "population": "33946",
        "population:census:1992": "45769",
        "siruta:code": "83339",
        "siruta:code_sup": "83320",
        "siruta:county": "Harghita",
        "siruta:county_code": "HR",
        "siruta:county_id": "19",
        "siruta:name_sup": "Miercurea Ciuc",
        "siruta:type": "9",
        "source:population": "RPL 2021",
        "wikidata": "Q193420",
        "wikipedia": "ro:Miercurea Ciuc"
      },
      "geometry": {
        "type": "Point",
        "coordinates": [
          25.8026675,
          46.3614042
        ]
      },
      "id": "node/142172498"
    },
    {
      "type": "Feature",
      "properties": {
        "@id": "node/142256099",
        "admin_level": "4",
        "capital": "4",
        "name": "Călărași",
        "name:ar": "كالاراش",
        "name:bg": "Кълъраш",
        "name:cs": "Călăraşi",
        "name:el": "Καλαράσι",
        "name:en": "Călărași",
        "name:es": "Călărași",
        "name:fa": "کلرش",
        "name:fr": "Calarasi",
        "name:hr": "Călăraşi",
        "name:id": "Călăraşi",
        "name:it": "Călăraşi",
        "name:ja": "カララシ",
        "name:ko": "컬러라시",
        "name:lt": "Kelerašis",
        "name:ml": "കലറാഷ്",
        "name:ms": "Călăraşi",
        "name:nl": "Călărași",
        "name:nn": "Călăraşi",
        "name:pl": "Călăraşi",
        "name:pt": "Călăraşi",
        "name:ru": "Кэлэраш",
        "name:sr": "Калараш",
        "name:tg": "Кэлэраши",
        "name:uk": "Келераші",
        "name:zh": "克勒拉希",
        "old_postal_code": "8500",
        "place": "city",
        "population": "65181",
        "population:census:1992": "76952",
        "siruta:code": "92578",
        "siruta:code_sup": "92569",
        "siruta:county": "Călărași",
        "siruta:county_code": "CL",
        "siruta:county_id": "51",
        "siruta:name_sup": "Călărași",
        "siruta:type": "9",
        "source": "survey",
        "wikidata": "Q212561",
        "wikipedia": "ro:Călărași"
      },
      "geometry": {
        "type": "Point",
        "coordinates": [
          27.3313233,
          44.1961646
        ]
      },
      "id": "node/142256099"
    },
    {
      "type": "Feature",
      "properties": {
        "@id": "node/146881926",
        "admin_level": "4",
        "capital": "4",
        "ele": "127",
        "name": "Satu Mare",
        "name:de": "Sathmar",
        "name:el": "Σάτου Μάρε",
        "name:fa": "ستو ماره",
        "name:hu": "Szatmárnémeti",
        "name:kn": "ಸಾತು ಮರೆ",
        "name:lt": "Satu Marė",
        "name:ml": "സറ്റു-മാറെ",
        "name:ro": "Satu Mare",
        "name:ru": "Сату-Маре",
        "name:sk": "Satmár",
        "name:sr": "Сату Маре",
        "name:uk": "Сату-Маре",
        "old_postal_code": "3900",
        "place": "city",
        "population": "102411",
        "population:census:1992": "130584",
        "siruta:code": "136492",
        "siruta:code_sup": "136483",
        "siruta:county": "Satu Mare",
        "siruta:county_code": "SM",
        "siruta:county_id": "30",
        "siruta:name_sup": "Satu Mare",
        "siruta:type": "9",
        "wikidata": "Q185332",
        "wikipedia": "ro:Satu Mare"
      },
      "geometry": {
        "type": "Point",
        "coordinates": [
          22.8725598,
          47.7891763
        ]
      },
      "id": "node/146881926"
    },
    {
      "type": "Feature",
      "properties": {
        "@id": "node/245919721",
        "admin_level": "4",
        "capital": "4",
        "designation": "Municipiu Reședință de Județ",
        "name": "Vaslui",
        "name:de": "Wassluy",
        "name:fa": "واسلویی",
        "name:hu": "Vászló",
        "name:ko": "바슬루이",
        "name:ml": "വാസ്ലുയി",
        "name:ru": "Васлуй",
        "name:sr": "Васлуј",
        "name:uk": "Васлуй",
        "old_postal_code": "6500",
        "place": "city",
        "population": "55407",
        "population:census:1992": "75326",
        "siruta:code": "161954",
        "siruta:code_sup": "161945",
        "siruta:county": "Vaslui",
        "siruta:county_code": "VS",
        "siruta:county_id": "37",
        "siruta:name_sup": "Vaslui",
        "siruta:type": "9",
        "wikidata": "Q192269",
        "wikipedia": "ro:Vaslui"
      },
      "geometry": {
        "type": "Point",
        "coordinates": [
          27.7309515,
          46.639394
        ]
      },
      "id": "node/245919721"
    },
    {
      "type": "Feature",
      "properties": {
        "@id": "node/265006357",
        "admin_level": "4",
        "capital": "4",
        "name": "Brașov",
        "name:ar": "براشوف",
        "name:bg": "Брашов",
        "name:cs": "Brašov",
        "name:de": "Kronstadt",
        "name:en": "Brasov",
        "name:fa": "براشوو",
        "name:gem": "Kruunen",
        "name:hr": "Brašov",
        "name:hu": "Brassó",
        "name:ja": "ブラショヴ",
        "name:ja-Hira": "ぶらしょぶ",
        "name:kn": "ಬ್ರಾಸೌ",
        "name:ml": "ബ്രാഷോവ്",
        "name:pl": "Braszów",
        "name:ro": "Brașov",
        "name:ru": "Брашов",
        "name:sk": "Brašov",
        "name:sr": "Брашов",
        "name:tr": "Braşov",
        "name:uk": "Брашов",
        "old_name": "Stalin",
        "old_postal_code": "2200",
        "place": "city",
        "population": "253200",
        "population:census:1992": "323736",
        "siruta:code": "40205",
        "siruta:code_sup": "40198",
        "siruta:county": "Brașov",
        "siruta:county_code": "BV",
        "siruta:county_id": "8",
        "siruta:name_sup": "Brașov",
        "siruta:type": "9",
        "wikidata": "Q82174",
        "wikipedia": "ro:Brașov"
      },
      "geometry": {
        "type": "Point",
        "coordinates": [
          25.6105654,
          45.6525105
        ]
      },
      "id": "node/265006357"
    },
    {
      "type": "Feature",
      "properties": {
        "@id": "node/290485693",
        "admin_level": "4",
        "alt_name:cs": "Sibiň",
        "alt_name:de": "Härmeschtat",
        "alt_name:sk": "Sibiň",
        "capital": "4",
        "name": "Sibiu",
        "name:ar": "سيبيو",
        "name:bg": "Сибиу",
        "name:cs": "Sibiu",
        "name:de": "Hermannstadt",
        "name:el": "Σιμπίου",
        "name:en": "Sibiu",
        "name:es": "Sibiu",
        "name:fa": "سیبیو",
        "name:fr": "Sibiu",
        "name:he": "סיביו",
        "name:hr": "Sibiu",
        "name:hu": "Nagyszeben",
        "name:kn": "ಸಿಬಿಯೂ",
        "name:la": "Cibinium",
        "name:ml": "സിബിയൂ",
        "name:pl": "Sybin",
        "name:ro": "Sibiu",
        "name:ru": "Сибиу",
        "name:sk": "Sibiu",
        "name:sl": "Sibiu",
        "name:sr": "Сибињ",
        "name:uk": "Сібіу",
        "old_postal_code": "2400",
        "place": "city",
        "population": "147245",
        "population:census:1992": "169610",
        "population:census:2009": "154548",
        "postal_code": "550000",
        "siruta:code": "143469",
        "siruta:code_sup": "143450",
        "siruta:county": "Sibiu",
        "siruta:county_code": "SB",
        "siruta:county_id": "32",
        "siruta:name_sup": "Sibiu",
        "siruta:type": "9",
        "wikidata": "Q83324",
        "wikipedia": "ro:Sibiu"
      },
      "geometry": {
        "type": "Point",
        "coordinates": [
          24.1519202,
          45.7973912
        ]
      },
      "id": "node/290485693"
    },
    {
      "type": "Feature",
      "properties": {
        "@id": "node/317989136",
        "admin_level": "4",
        "alt_name:de": "Constantza",
        "capital": "4",
        "name": "Constanța",
        "name:an": "Constancia",
        "name:ar": "كونستانتسا",
        "name:az": "Konstansa",
        "name:ba": "Констанца",
        "name:be": "Канстанца",
        "name:bg": "Констанца",
        "name:ce": "Констанца",
        "name:crh": "Köstence",
        "name:de": "Konstanza",
        "name:el": "Κωνστάντζα",
        "name:en": "Constanța",
        "name:eo": "Konstanco",
        "name:es": "Constanza",
        "name:eu": "Konstantza",
        "name:fa": "کنستانتسا",
        "name:fr": "Constanța",
        "name:gl": "Constancia",
        "name:he": "קונסטנצה",
        "name:hr": "Constanța",
        "name:hu": "Konstanca",
        "name:hy": "Կոնստանցա",
        "name:id": "Constanţa",
        "name:ie": "Constanţa",
        "name:io": "Constanţa",
        "name:is": "Constanţa",
        "name:it": "Costanza",
        "name:ja": "コンスタンツァ",
        "name:ka": "კონსტანცა",
        "name:kn": "ಕೊನ್ಸ್ತಾಂತ",
        "name:ko": "콘스탄차",
        "name:ky": "Констанца",
        "name:la": "Constantia",
        "name:lt": "Konstanca",
        "name:lv": "Konstanca",
        "name:mk": "Констанца",
        "name:ml": "കോൺസ്റ്റാന്റ്സ",
        "name:mn": "Констанца",
        "name:mr": "कोन्स्तांत्सा",
        "name:ms": "Constanţa",
        "name:nl": "Constanța",
        "name:os": "Констанцæ",
        "name:pl": "Konstanca",
        "name:pt": "Constança",
        "name:ro": "Constanța",
        "name:ru": "Констанца",
        "name:se": "Constanța",
        "name:sk": "Konstanca",
        "name:sl": "Konstanca",
        "name:sq": "Konstanca",
        "name:sr": "Констанца",
        "name:tg": "Константса",
        "name:th": "กอนสตันซา",
        "name:tr": "Köstence",
        "name:tt": "Күстәнҗә",
        "name:uk": "Констанца",
        "name:ur": "کونستانتسا",
        "name:uz": "Konstansa",
        "name:vo": "Constanţa",
        "name:zh": "康斯坦察",
        "old_name:la": "Tomis",
        "old_postal_code": "8700",
        "place": "city",
        "population": "283872",
        "population:census:1992": "346867",
        "population:date": "2011",
        "population:de:1940": "658",
        "siruta:code": "60428",
        "siruta:code_sup": "60419",
        "siruta:county": "Constanța",
        "siruta:county_code": "CT",
        "siruta:county_id": "13",
        "siruta:name_sup": "Constanța",
        "siruta:type": "9",
        "wikidata": "Q79808",
        "wikipedia": "ro:Constanța"
      },
      "geometry": {
        "type": "Point",
        "coordinates": [
          28.6507598,
          44.1767161
        ]
      },
      "id": "node/317989136"
    },
    {
      "type": "Feature",
      "properties": {
        "@id": "node/390384649",
        "admin_level": "4",
        "capital": "4",
        "name": "Craiova",
        "name:ar": "كرايوفا",
        "name:az": "Krayova",
        "name:ba": "Крайова",
        "name:be": "Краёва",
        "name:bg": "Крайова",
        "name:ce": "Крайова",
        "name:de": "Krajowa",
        "name:el": "Κραϊόβα",
        "name:en": "Craiova",
        "name:es": "Craiova",
        "name:fa": "کرایووا",
        "name:fr": "Craiova",
        "name:he": "קראיובה",
        "name:hr": "Craiova",
        "name:hu": "Craiova",
        "name:hy": "Կրայովա",
        "name:ja": "クラヨーヴァ",
        "name:ka": "კრაიოვა",
        "name:kn": "ಕ್ರಯೋವ",
        "name:ko": "크라이오바",
        "name:lt": "Krajova",
        "name:lv": "Krajova",
        "name:mk": "Крајова",
        "name:ml": "ക്രയോവ",
        "name:mn": "Крайова",
        "name:os": "Крайовæ",
        "name:pl": "Krajowa",
        "name:ps": "کرايووا",
        "name:ro": "Craiova",
        "name:ru": "Крайова",
        "name:sq": "Krajova",
        "name:sr": "Крајова",
        "name:tg": "Крайова",
        "name:th": "กรายอวา",
        "name:tr": "Krayova",
        "name:tt": "Крайова",
        "name:uk": "Крайова",
        "name:ur": "کرایووا",
        "name:zh": "克拉約瓦",
        "old_name:de": "Kragau",
        "old_postal_code": "1100",
        "place": "city",
        "population": "269506",
        "population:census:1992": "299122",
        "siruta:code": "69919",
        "siruta:code_sup": "69900",
        "siruta:county": "Dolj",
        "siruta:county_code": "DJ",
        "siruta:county_id": "16",
        "siruta:name_sup": "Craiova",
        "siruta:type": "9",
        "wikidata": "Q168057",
        "wikipedia": "ro:Craiova"
      },
      "geometry": {
        "type": "Point",
        "coordinates": [
          23.7965614,
          44.3190159
        ]
      },
      "id": "node/390384649"
    },
    {
      "type": "Feature",
      "properties": {
        "@id": "node/422868186",
        "admin_level": "4",
        "alt_name:hu": "Erdélyifehérvár",
        "capital": "4",
        "name": "Alba Iulia",
        "name:be": "Алба-Юлія",
        "name:bg": "Алба Юлия",
        "name:cs": "Alba Iulia",
        "name:de": "Alba Iulia",
        "name:el": "Άλμπα Ιούλια",
        "name:en": "Alba Iulia",
        "name:fa": "آلبا ایولیا",
        "name:fr": "Alba Iulia",
        "name:he": "אלבה יוליה",
        "name:hr": "Alba Iulia",
        "name:hu": "Gyulafehérvár",
        "name:ka": "ალბა-იულია",
        "name:la": "Apulum",
        "name:lt": "Alba Julija",
        "name:ml": "ആൽബ യൂലിയ",
        "name:ro": "Alba Iulia",
        "name:ru": "Алба-Юлия",
        "name:sl": "Alba Iulia",
        "name:sr": "Алба Јулија",
        "name:tr": "Erdel Belgradı",
        "name:uk": "Алба-Юлія",
        "old_name": "Bălgrad;Bălgărad",
        "old_name:de": "Karlsburg;Weißenburg",
        "old_postal_code": "2500",
        "place": "city",
        "population": "63536",
        "population:census:1992": "65091",
        "siruta:code": "1026",
        "siruta:code_sup": "1017",
        "siruta:county": "Alba",
        "siruta:county_code": "AB",
        "siruta:county_id": "1",
        "siruta:name_sup": "Alba Iulia",
        "siruta:type": "9",
        "source": "geo-spatial.org",
        "wikidata": "Q174665",
        "wikipedia": "ro:Alba Iulia"
      },
      "geometry": {
        "type": "Point",
        "coordinates": [
          23.5664761,
          46.0682753
        ]
      },
      "id": "node/422868186"
    },
    {
      "type": "Feature",
      "properties": {
        "@id": "node/1308825513",
        "admin_level": "4",
        "capital": "4",
        "name": "Bacău",
        "name:de": "Barchau",
        "name:el": "Μπακάου",
        "name:he": "בקאו",
        "name:hu": "Bákó",
        "name:kn": "ಬಕೌ",
        "name:la": "Bacovia",
        "name:lt": "Bakeu",
        "name:ml": "ബാക്കോവ്",
        "name:pl": "Baków",
        "name:ro": "Bacău",
        "name:ru": "Бакэу",
        "name:sr": "Бакау",
        "name:uk": "Бакеу",
        "place": "city",
        "population": "144307",
        "population:census:2002": "175500",
        "siruta:code": "20304",
        "wikidata": "Q10737004",
        "wikipedia": "ro:Bacău"
      },
      "geometry": {
        "type": "Point",
        "coordinates": [
          26.9153557,
          46.5560493
        ]
      },
      "id": "node/1308825513"
    },
    {
      "type": "Feature",
      "properties": {
        "@id": "node/2691094601",
        "admin_level": "4",
        "capital": "4",
        "name": "Oradea",
        "name:ar": "أوراديا",
        "name:be": "Арадзя",
        "name:bg": "Орадя",
        "name:cs": "Oradea",
        "name:el": "Οράντεα",
        "name:en": "Oradea",
        "name:fa": "اورادئا",
        "name:fr": "Oradea",
        "name:he": "אוראדיה",
        "name:hr": "Oradea",
        "name:hu": "Nagyvárad",
        "name:hy": "Օրադյա",
        "name:ja": "オラデア",
        "name:ka": "ორადია",
        "name:kn": "ಓರದೇಅ",
        "name:ko": "오라데아",
        "name:la": "Varadinum",
        "name:lt": "Oradia",
        "name:lv": "Oradja",
        "name:mk": "Орадеја",
        "name:ml": "ഒറാഡിയ",
        "name:mn": "Орадя",
        "name:os": "Орадя",
        "name:pl": "Oradea",
        "name:ro": "Oradea",
        "name:ru": "Орадя",
        "name:si": "ඔරාඩියා",
        "name:sl": "Oradea",
        "name:sr": "Велики Варадин",
        "name:ta": "ஒராதேயா",
        "name:tg": "Орадя",
        "name:th": "ออราเดอา",
        "name:tr": "Varad",
        "name:tt": "Oradä",
        "name:uk": "Орадя",
        "name:ur": "اورادیا",
        "name:yi": "גרויסווארדיין",
        "name:zh": "奥拉迪亚",
        "old_name:de": "Großwardein",
        "old_name:hr": "Veliki Varadin",
        "old_name:sk": "Veľký Varadín",
        "place": "city",
        "population": "196367",
        "population:census:1992": "222741",
        "siruta:code": "26573",
        "siruta:code_sup": "26564",
        "wikidata": "Q93358",
        "wikipedia": "ro:Oradea"
      },
      "geometry": {
        "type": "Point",
        "coordinates": [
          21.9285231,
          47.0549163
        ]
      },
      "id": "node/2691094601"
    }
  ]
}