{"type":"FeatureCollection","features":[{"type":"Feature","properties":{},"geometry":{"type":"Polygon","coordinates":[[[30.0454,45.0867],[29.882,44.7697],[29.8152,44.6957],[29.6717,44.6051],[29.2239,44.5413],[29.1315,44.4376],[28.9724,44.0749],[28.9412,43.9362],[28.8556,43.7386],[28.4465,43.7337],[28.2362,43.7585],[27.9944,43.8429],[27.9442,43.9847],[27.9168,44.0083],[27.8443,43.9668],[27.7101,43.9594],[27.6736,44.0298],[27.6427,44.047],[27.6119,44.0122],[27.3993,44.0122],[27.3562,44.0587],[27.2913,44.0751],[27.2682,44.1279],[27.1947,44.1175],[27.1478,44.1406],[27.0465,44.1486],[26.9394,44.1384],[26.774,44.0807],[26.3833,44.0427],[26.1393,43.9838],[26.1037,43.9698],[26.0635,43.911],[25.9485,43.8562],[25.7832,43.7108],[25.7291,43.6877],[25.6477,43.6844],[25.5729,43.6452],[25.5026,43.6489],[25.401,43.6188],[25.1826,43.7006],[25.0743,43.6892],[24.962,43.7313],[24.7412,43.6845],[24.5888,43.7526],[24.5025,43.7614],[24.407,43.7363],[24.349,43.6981],[24.1936,43.6834],[24.0841,43.703],[23.9881,43.7459],[23.8886,43.7481],[23.7551,43.8025],[23.6254,43.7911],[23.4273,43.854],[23.2602,43.8451],[23.0607,43.797],[22.8805,43.8331],[22.8415,43.882],[22.8906,43.9895],[23.0092,44.0113],[23.0435,44.0755],[22.9223,44.1008],[22.676,44.2162],[22.6834,44.2716],[22.5579,44.309],[22.5247,44.339],[22.4975,44.4222],[22.4673,44.441],[22.4574,44.4675],[22.5505,44.4827],[22.5643,44.5356],[22.5984,44.5525],[22.6991,44.5167],[22.755,44.5352],[22.7544,44.565],[22.6696,44.6191],[22.6134,44.6172],[22.5671,44.6386],[22.484,44.7078],[22.4295,44.7098],[22.3711,44.6726],[22.333,44.6759],[22.2733,44.6232],[22.1842,44.4822],[22.1251,44.4756],[22.0372,44.5419],[21.9907,44.6335],[21.7934,44.6639],[21.6386,44.6595],[21.5852,44.7598],[21.3899,44.7871],[21.3585,44.8216],[21.3714,44.8666],[21.5601,44.889],[21.5467,44.9305],[21.4384,44.9605],[21.3602,45.0204],[21.4561,45.0404],[21.4476,45.0576],[21.4817,45.0909],[21.4786,45.1214],[21.5274,45.1379],[21.5148,45.1712],[21.3953,45.2188],[21.2923,45.2424],[21.2757,45.2296],[21.2028,45.2654],[21.1799,45.3126],[21.0965,45.2959],[21.0634,45.3319],[21.0166,45.3246],[20.9203,45.4172],[20.8646,45.4318],[20.8789,45.4545],[20.8333,45.48],[20.771,45.4799],[20.7688,45.5002],[20.8326,45.5359],[20.7658,45.6126],[20.805,45.6572],[20.8027,45.7377],[20.8231,45.7751],[20.7836,45.7859],[20.774,45.7545],[20.7002,45.7508],[20.6814,45.7973],[20.6509,45.8118],[20.6606,45.8292],[20.5815,45.8694],[20.5693,45.9101],[20.5158,45.8921],[20.4829,45.9534],[20.4054,45.9652],[20.3483,45.9996],[20.3461,46.0474],[20.2732,46.0983],[20.2643,46.1264],[20.3556,46.1697],[20.4591,46.1429],[20.5029,46.1897],[20.6319,46.1282],[20.715,46.1669],[20.7274,46.2074],[20.7618,46.2045],[20.749,46.2508],[20.7892,46.2731],[20.8733,46.2878],[20.9222,46.2618],[21.0247,46.2665],[21.0661,46.2429],[21.1032,46.2626],[21.1155,46.3017],[21.1701,46.298],[21.2063,46.4032],[21.2754,46.4067],[21.3178,46.4507],[21.2604,46.502],[21.3208,46.5828],[21.3011,46.5908],[21.33,46.6316],[21.41,46.6218],[21.4547,46.6607],[21.431,46.6781],[21.4955,46.6877],[21.5293,46.7208],[21.4841,46.7649],[21.5222,46.8085],[21.5192,46.8359],[21.5952,46.8605],[21.6142,46.8865],[21.6062,46.9325],[21.6383,46.933],[21.6601,46.9559],[21.6793,46.998],[21.6486,47.0402],[21.6826,47.0457],[21.7261,47.0985],[21.7914,47.124],[21.8175,47.1728],[21.858,47.187],[21.8518,47.2392],[21.9385,47.373],[22.012,47.3761],[22.0353,47.4274],[22.0074,47.4759],[22.0242,47.52],[22.1305,47.5982],[22.1694,47.5917],[22.2307,47.6932],[22.2589,47.6981],[22.2645,47.7312],[22.4258,47.7501],[22.4479,47.8031],[22.4879,47.806],[22.5495,47.7727],[22.6856,47.7928],[22.7109,47.8339],[22.7778,47.8423],[22.7687,47.8779],[22.9438,47.9699],[22.9273,48.0192],[23.0132,47.9908],[23.0908,48.006],[23.1055,48.0661],[23.1465,48.0997],[23.2676,48.1001],[23.288,48.0468],[23.4936,47.9678],[23.527,48.0161],[23.6663,47.9835],[23.7509,47.9983],[23.8184,47.9834],[23.8643,47.9317],[23.9494,47.9625],[24.0502,47.9533],[24.1117,47.9152],[24.1969,47.9162],[24.2186,47.8975],[24.3817,47.9265],[24.3923,47.9528],[24.4361,47.9704],[24.5124,47.9526],[24.58,47.9668],[24.6739,47.8964],[24.6727,47.8636],[24.8277,47.8207],[24.8362,47.7797],[24.8784,47.7527],[24.8831,47.7244],[25.0397,47.7253],[25.1156,47.7548],[25.2218,47.8586],[25.237,47.8957],[25.6255,47.9488],[25.775,47.9394],[25.8612,47.9704],[26.1844,47.9947],[26.2141,48.0526],[26.2727,48.0821],[26.3351,48.1837],[26.4923,48.2185],[26.5291,48.2099],[26.5735,48.2407],[26.6221,48.2409],[26.6302,48.2596],[26.6672,48.2464],[26.6948,48.2618],[26.7203,48.2466],[26.8067,48.2546],[26.8855,48.2016],[26.9435,48.1957],[26.9551,48.1363],[27.0407,48.1053],[27.0271,48.0874],[27.1233,47.993],[27.1615,47.9962],[27.1497,47.9599],[27.1753,47.95],[27.152,47.921],[27.1938,47.9067],[27.2164,47.8166],[27.2856,47.7445],[27.2676,47.712],[27.3333,47.6277],[27.4049,47.5828],[27.4758,47.4848],[27.5697,47.4655],[27.5525,47.4333],[27.5751,47.4188],[27.569,47.3731],[27.6152,47.3387],[27.6041,47.3286],[27.6341,47.3023],[27.727,47.2955],[27.7448,47.245],[27.8037,47.1877],[27.8011,47.1378],[28.096,46.9765],[28.0785,46.962],[28.0994,46.9267],[28.0865,46.8979],[28.1144,46.89],[28.1144,46.822],[28.1522,46.7975],[28.1864,46.7251],[28.2349,46.6747],[28.2332,46.5631],[28.2098,46.507],[28.2556,46.4632],[28.2578,46.4251],[28.1975,46.3701],[28.1842,46.3333],[28.2063,46.317],[28.1367,46.2799],[28.1081,46.2143],[28.1415,46.192],[28.1298,46.1257],[28.0898,46.0718],[28.1051,46.0525],[28.0859,46.009],[28.1328,45.8764],[28.1088,45.8306],[28.167,45.7359],[28.1734,45.6473],[28.0924,45.598],[28.1655,45.5454],[28.1605,45.5108],[28.1884,45.4732],[28.2867,45.4334],[28.2853,45.3996],[28.349,45.3204],[28.5689,45.2482],[28.7139,45.2236],[28.7926,45.2435],[28.7519,45.2813],[28.7934,45.2931],[28.8165,45.3363],[28.9473,45.2822],[28.9486,45.3097],[29.0441,45.3605],[29.2382,45.4327],[29.4297,45.4426],[29.5507,45.4089],[29.6509,45.3396],[29.6786,45.2682],[29.6599,45.2513],[29.6906,45.1917],[29.9521,45.1697],[29.9956,45.1144],[30.0454,45.0867]]]}}]}